CCSDS_OMM_VERS = 2.0
CREATION_DATE  = 
ORIGINATOR     = 

OBJECT_NAME    = ATLAS CENTAUR R/B
OBJECT_ID      = 1972-065B
CENTER_NAME    = EARTH
REF_FRAME      = TEME
TIME_SYSTEM    = UTC
MEAN_ELEMENT_THEORY = SGP/SGP4

EPOCH          = 2026-02-09T07:33:18.912672
MEAN_MOTION    = 14.77603317
ECCENTRICITY   = .0033196
INCLINATION    = 35.0012
RA_OF_ASC_NODE = 112.0279
ARG_OF_PERICENTER = 132.0293
MEAN_ANOMALY   = 228.3241

EPHEMERIS_TYPE = 0
CLASSIFICATION_TYPE = U
NORAD_CAT_ID   = 6155
ELEMENT_SET_NO = 999
REV_AT_EPOCH   = 83706
BSTAR          = .21723E-3
MEAN_MOTION_DOT = .1569E-4
MEAN_MOTION_DDOT = 0

CCSDS_OMM_VERS = 2.0
CREATION_DATE  = 
ORIGINATOR     = 

OBJECT_NAME    = SL-8 R/B
OBJECT_ID      = 1975-112B
CENTER_NAME    = EARTH
REF_FRAME      = TEME
TIME_SYSTEM    = UTC
MEAN_ELEMENT_THEORY = SGP/SGP4

EPOCH          = 2026-02-09T12:57:42.693408
MEAN_MOTION    = 14.38189484
ECCENTRICITY   = .0015363
INCLINATION    = 74.0591
RA_OF_ASC_NODE = 70.6981
ARG_OF_PERICENTER = 173.9252
MEAN_ANOMALY   = 186.2091

EPHEMERIS_TYPE = 0
CLASSIFICATION_TYPE = U
NORAD_CAT_ID   = 8459
ELEMENT_SET_NO = 999
REV_AT_EPOCH   = 62782
BSTAR          = .76057E-4
MEAN_MOTION_DOT = .205E-5
MEAN_MOTION_DDOT = 0

CCSDS_OMM_VERS = 2.0
CREATION_DATE  = 
ORIGINATOR     = 

OBJECT_NAME    = SL-3 R/B
OBJECT_ID      = 1977-057B
CENTER_NAME    = EARTH
REF_FRAME      = TEME
TIME_SYSTEM    = UTC
MEAN_ELEMENT_THEORY = SGP/SGP4

EPOCH          = 2026-02-09T22:26:40.174080
MEAN_MOTION    = 15.44682454
ECCENTRICITY   = .00079396
INCLINATION    = 97.5734
RA_OF_ASC_NODE = 211.6589
ARG_OF_PERICENTER = 31.1491
MEAN_ANOMALY   = 329.0226

EPHEMERIS_TYPE = 0
CLASSIFICATION_TYPE = U
NORAD_CAT_ID   = 10114
ELEMENT_SET_NO = 999
REV_AT_EPOCH   = 66404
BSTAR          = .28761737E-3
MEAN_MOTION_DOT = .13342E-3
MEAN_MOTION_DDOT = 0

CCSDS_OMM_VERS = 2.0
CREATION_DATE  = 
ORIGINATOR     = 

OBJECT_NAME    = SEASAT 1
OBJECT_ID      = 1978-064A
CENTER_NAME    = EARTH
REF_FRAME      = TEME
TIME_SYSTEM    = UTC
MEAN_ELEMENT_THEORY = SGP/SGP4

EPOCH          = 2026-02-09T23:10:06.825792
MEAN_MOTION    = 14.46137704
ECCENTRICITY   = .00016373
INCLINATION    = 108.0162
RA_OF_ASC_NODE = 67.3166
ARG_OF_PERICENTER = 291.8209
MEAN_ANOMALY   = 68.2763

EPHEMERIS_TYPE = 0
CLASSIFICATION_TYPE = U
NORAD_CAT_ID   = 10967
ELEMENT_SET_NO = 999
REV_AT_EPOCH   = 50250
BSTAR          = .12874385E-3
MEAN_MOTION_DOT = .323E-5
MEAN_MOTION_DDOT = 0

CCSDS_OMM_VERS = 2.0
CREATION_DATE  = 
ORIGINATOR     = 

OBJECT_NAME    = SL-14 R/B
OBJECT_ID      = 1979-011B
CENTER_NAME    = EARTH
REF_FRAME      = TEME
TIME_SYSTEM    = UTC
MEAN_ELEMENT_THEORY = SGP/SGP4

EPOCH          = 2026-02-09T16:17:48.368256
MEAN_MOTION    = 14.91873737
ECCENTRICITY   = .00169383
INCLINATION    = 82.5252
RA_OF_ASC_NODE = 123.1486
ARG_OF_PERICENTER = 146.7559
MEAN_ANOMALY   = 213.4728

EPHEMERIS_TYPE = 0
CLASSIFICATION_TYPE = U
NORAD_CAT_ID   = 11267
ELEMENT_SET_NO = 999
REV_AT_EPOCH   = 52460
BSTAR          = .70042845E-4
MEAN_MOTION_DOT = .735E-5
MEAN_MOTION_DDOT = 0

CCSDS_OMM_VERS = 2.0
CREATION_DATE  = 
ORIGINATOR     = 

OBJECT_NAME    = SL-8 R/B
OBJECT_ID      = 1979-089B
CENTER_NAME    = EARTH
REF_FRAME      = TEME
TIME_SYSTEM    = UTC
MEAN_ELEMENT_THEORY = SGP/SGP4

EPOCH          = 2026-02-09T17:22:46.581600
MEAN_MOTION    = 14.42333259
ECCENTRICITY   = .00166134
INCLINATION    = 74.0698
RA_OF_ASC_NODE = 142.8095
ARG_OF_PERICENTER = 318.9218
MEAN_ANOMALY   = 41.0686

EPHEMERIS_TYPE = 0
CLASSIFICATION_TYPE = U
NORAD_CAT_ID   = 11574
ELEMENT_SET_NO = 999
REV_AT_EPOCH   = 43207
BSTAR          = .10945065E-3
MEAN_MOTION_DOT = .336E-5
MEAN_MOTION_DDOT = 0

CCSDS_OMM_VERS = 2.0
CREATION_DATE  = 
ORIGINATOR     = 

OBJECT_NAME    = SL-14 R/B
OBJECT_ID      = 1980-005B
CENTER_NAME    = EARTH
REF_FRAME      = TEME
TIME_SYSTEM    = UTC
MEAN_ELEMENT_THEORY = SGP/SGP4

EPOCH          = 2026-02-09T21:00:00.089856
MEAN_MOTION    = 14.90893398
ECCENTRICITY   = .00141391
INCLINATION    = 82.5174
RA_OF_ASC_NODE = 333.6123
ARG_OF_PERICENTER = 255.1391
MEAN_ANOMALY   = 104.8262

EPHEMERIS_TYPE = 0
CLASSIFICATION_TYPE = U
NORAD_CAT_ID   = 11672
ELEMENT_SET_NO = 999
REV_AT_EPOCH   = 47234
BSTAR          = .77189886E-4
MEAN_MOTION_DOT = .787E-5
MEAN_MOTION_DDOT = 0

CCSDS_OMM_VERS = 2.0
CREATION_DATE  = 
ORIGINATOR     = 

OBJECT_NAME    = SL-8 R/B
OBJECT_ID      = 1981-003B
CENTER_NAME    = EARTH
REF_FRAME      = TEME
TIME_SYSTEM    = UTC
MEAN_ELEMENT_THEORY = SGP/SGP4

EPOCH          = 2026-02-09T20:16:17.583744
MEAN_MOTION    = 15.09962187
ECCENTRICITY   = .02631032
INCLINATION    = 82.9390
RA_OF_ASC_NODE = 315.7501
ARG_OF_PERICENTER = 275.8640
MEAN_ANOMALY   = 81.2658

EPHEMERIS_TYPE = 0
CLASSIFICATION_TYPE = U
NORAD_CAT_ID   = 12139
ELEMENT_SET_NO = 999
REV_AT_EPOCH   = 31047
BSTAR          = .44915294E-3
MEAN_MOTION_DOT = .16951E-3
MEAN_MOTION_DDOT = 0

CCSDS_OMM_VERS = 2.0
CREATION_DATE  = 
ORIGINATOR     = 

OBJECT_NAME    = SL-3 R/B
OBJECT_ID      = 1981-046B
CENTER_NAME    = EARTH
REF_FRAME      = TEME
TIME_SYSTEM    = UTC
MEAN_ELEMENT_THEORY = SGP/SGP4

EPOCH          = 2026-02-09T22:31:45.171264
MEAN_MOTION    = 15.41213383
ECCENTRICITY   = .00207476
INCLINATION    = 81.2339
RA_OF_ASC_NODE = 323.0405
ARG_OF_PERICENTER = 113.1928
MEAN_ANOMALY   = 247.1503

EPHEMERIS_TYPE = 0
CLASSIFICATION_TYPE = U
NORAD_CAT_ID   = 12465
ELEMENT_SET_NO = 999
REV_AT_EPOCH   = 43415
BSTAR          = .3405485E-3
MEAN_MOTION_DOT = .14286E-3
MEAN_MOTION_DDOT = 0

CCSDS_OMM_VERS = 2.0
CREATION_DATE  = 
ORIGINATOR     = 

OBJECT_NAME    = SL-3 R/B
OBJECT_ID      = 1981-103B
CENTER_NAME    = EARTH
REF_FRAME      = TEME
TIME_SYSTEM    = UTC
MEAN_ELEMENT_THEORY = SGP/SGP4

EPOCH          = 2026-02-09T22:45:18.919296
MEAN_MOTION    = 15.21037011
ECCENTRICITY   = .00136817
INCLINATION    = 81.1564
RA_OF_ASC_NODE = 245.9723
ARG_OF_PERICENTER = 22.6037
MEAN_ANOMALY   = 337.5794

EPHEMERIS_TYPE = 0
CLASSIFICATION_TYPE = U
NORAD_CAT_ID   = 12904
ELEMENT_SET_NO = 999
REV_AT_EPOCH   = 96901
BSTAR          = .2183359E-3
MEAN_MOTION_DOT = .4882E-4
MEAN_MOTION_DDOT = 0

CCSDS_OMM_VERS = 2.0
CREATION_DATE  = 
ORIGINATOR     = 

OBJECT_NAME    = SL-3 R/B
OBJECT_ID      = 1982-013B
CENTER_NAME    = EARTH
REF_FRAME      = TEME
TIME_SYSTEM    = UTC
MEAN_ELEMENT_THEORY = SGP/SGP4

EPOCH          = 2026-02-09T21:39:25.099776
MEAN_MOTION    = 15.21704118
ECCENTRICITY   = .00216609
INCLINATION    = 81.1743
RA_OF_ASC_NODE = 193.3257
ARG_OF_PERICENTER = 273.6965
MEAN_ANOMALY   = 86.1790

EPHEMERIS_TYPE = 0
CLASSIFICATION_TYPE = U
NORAD_CAT_ID   = 13068
ELEMENT_SET_NO = 999
REV_AT_EPOCH   = 40012
BSTAR          = .25570192E-3
MEAN_MOTION_DOT = .5848E-4
MEAN_MOTION_DDOT = 0

CCSDS_OMM_VERS = 2.0
CREATION_DATE  = 
ORIGINATOR     = 

OBJECT_NAME    = SL-3 R/B
OBJECT_ID      = 1982-039B
CENTER_NAME    = EARTH
REF_FRAME      = TEME
TIME_SYSTEM    = UTC
MEAN_ELEMENT_THEORY = SGP/SGP4

EPOCH          = 2026-02-09T22:59:16.867968
MEAN_MOTION    = 15.09925418
ECCENTRICITY   = .00300785
INCLINATION    = 81.1611
RA_OF_ASC_NODE = 247.9272
ARG_OF_PERICENTER = 55.1539
MEAN_ANOMALY   = 305.2508

EPHEMERIS_TYPE = 0
CLASSIFICATION_TYPE = U
NORAD_CAT_ID   = 13154
ELEMENT_SET_NO = 999
REV_AT_EPOCH   = 37745
BSTAR          = .14973269E-3
MEAN_MOTION_DOT = .2476E-4
MEAN_MOTION_DDOT = 0

