ATLAS CENTAUR R/B       
1 06155U 72065B   26040.31480223  .00001569  00000+0  21723-3 0  9990
2 06155  35.0012 112.0279 0033196 132.0293 228.3241 14.77603317837069
SL-8 R/B                
1 08459U 75112B   26040.54007747  .00000205  00000+0  76057-4 0  9993
2 08459  74.0591  70.6981 0015363 173.9252 186.2091 14.38189484627824
SL-3 R/B                
1 10114U 77057B   26040.93518720  .00013342  00000+0  28762-3 0  9990
2 10114  97.5734 211.6589 0007939  31.1491 329.0226 15.44682454664040
SEASAT 1                
1 10967U 78064A   26040.96535678  .00000323  00000+0  12874-3 0  9991
2 10967 108.0162  67.3166 0001637 291.8209  68.2763 14.46137704502501
SL-14 R/B               
1 11267U 79011B   26040.67903204  .00000735  00000+0  70043-4 0  9990
2 11267  82.5252 123.1486 0016938 146.7559 213.4728 14.91873737524606
SL-8 R/B                
1 11574U 79089B   26040.72415025  .00000336  00000+0  10945-3 0  9992
2 11574  74.0698 142.8095 0016613 318.9218  41.0686 14.42333259432079
SL-14 R/B               
1 11672U 80005B   26040.87500104  .00000787  00000+0  77190-4 0  9996
2 11672  82.5174 333.6123 0014139 255.1391 104.8262 14.90893398472348
SL-8 R/B                
1 12139U 81003B   26040.84464796  .00016951  00000+0  44915-3 0  9995
2 12139  82.9390 315.7501 0263103 275.8640  81.2658 15.09962187310471
SL-3 R/B                
1 12465U 81046B   26040.93871726  .00014286  00000+0  34055-3 0  9992
2 12465  81.2339 323.0405 0020747 113.1928 247.1503 15.41213383434158
SL-3 R/B                
1 12904U 81103B   26040.94813564  .00004882  00000+0  21834-3 0  9993
2 12904  81.1564 245.9723 0013681  22.6037 337.5794 15.21037011969018
SL-3 R/B                
1 13068U 82013B   26040.90237384  .00005848  00000+0  25570-3 0  9996
2 13068  81.1743 193.3257 0021660 273.6965  86.1790 15.21704118400125
SL-3 R/B                
1 13154U 82039B   26040.95783412  .00002476  00000+0  14973-3 0  9992
2 13154  81.1611 247.9272 0030078  55.1539 305.2508 15.09925418377456
